NORAD_CAT_ID,OBJECT_NAME,OBJECT_TYPE,EPOCH,MEAN_MOTION,ECCENTRICITY,INCLINATION,RA_OF_ASC_NODE,ARG_OF_PERICENTER,MEAN_ANOMALY,BSTAR,MEAN_MOTION_DOT,MEAN_MOTION_DDOT,TLE_LINE0,TLE_LINE1,TLE_LINE2,SEMIMAJOR_AXIS,PERIOD,APOGEE,PERIGEE,DECAYED
54778.0,STARLINK-5450,PAYLOAD,2023-08-09 12:44:04,15.0883284,9.13e-05,53.217,303.1957,98.4099,261.6997,-0.00013862,-2.493e-05,0.0,0 STARLINK-5450,1 54778U 22175W   23221.53060560 -.00002493  00000-0 -13862-3 0  9996,2 54778  53.2170 303.1957 0000913  98.4099 261.6997 15.08832840 35581,6917.902,95.438,540.399,539.136,0.0
54778.0,STARLINK-5450,PAYLOAD,2023-08-09 22:16:22,15.08836753,9.56e-05,53.2175,301.4109,93.7013,266.4088,-4.975e-05,-1.079e-05,0.0,0 STARLINK-5450,1 54778U 22175W   23221.92804095 -.00001079  00000-0 -49750-4 0  9993,2 54778  53.2175 301.4109 0000956  93.7013 266.4088 15.08836753 35645,6917.89,95.438,540.417,539.094,0.0
54778.0,STARLINK-5450,PAYLOAD,2023-08-10 09:24:03,15.08847393,8.52e-05,53.2168,299.3294,99.6134,260.4955,-5.1533e-06,-3.7e-06,0.0,0 STARLINK-5450,1 54778U 22175W   23222.39171269 -.00000370  00000-0 -51533-5 0  9991,2 54778  53.2168 299.3294 0000852  99.6134 260.4955 15.08847393 35718,6917.858,95.437,540.312,539.133,0.0
54778.0,STARLINK-5450,PAYLOAD,2023-08-10 17:20:58,15.08854056,8.77e-05,53.2172,297.8427,93.328,266.7812,6.3709e-05,7.27e-06,0.0,0 STARLINK-5450,1 54778U 22175W   23222.72290439  .00000727  00000-0  63709-4 0  9990,2 54778  53.2172 297.8427 0000877  93.3280 266.7812 15.08854056 35764,6917.837,95.437,540.309,539.096,0.0
54778.0,STARLINK-5450,PAYLOAD,2023-08-10 22:07:09,15.08834638,7.67e-05,53.2171,296.9486,97.6084,262.4995,-0.0001498,-2.671e-05,0.0,0 STARLINK-5450,1 54778U 22175W   23222.92164212 -.00002671  00000-0 -14980-3 0  9999,2 54778  53.2171 296.9486 0000767  97.6084 262.4995 15.08834638 35797,6917.897,95.438,540.292,539.231,0.0
54778.0,STARLINK-5450,PAYLOAD,2023-08-11 10:50:14,15.0883642,8.36e-05,53.2164,294.5698,87.3836,272.7252,3.9595e-05,3.42e-06,0.0,0 STARLINK-5450,1 54778U 22175W   23223.45155800  .00000342  00000-0  39595-4 0  9992,2 54778  53.2164 294.5698 0000836  87.3836 272.7252 15.08836420 35876,6917.891,95.438,540.335,539.178,0.0
54778.0,STARLINK-5450,PAYLOAD,2023-08-11 17:11:46,15.08842577,8.16e-05,53.2162,293.3796,80.7432,279.3652,7.6884e-05,9.36e-06,0.0,0 STARLINK-5450,1 54778U 22175W   23223.71651264  .00000936  00000-0  76884-4 0  9997,2 54778  53.2162 293.3796 0000816  80.7432 279.3652 15.08842577 35919,6917.873,95.437,540.302,539.173,0.0
54778.0,STARLINK-5450,PAYLOAD,2023-08-11 21:57:56,15.08835054,8.62e-05,53.2163,292.4874,80.0052,280.1038,1.0204e-05,-1.25e-06,0.0,0 STARLINK-5450,1 54778U 22175W   23223.91524038 -.00000125  00000-0  10204-4 0  9992,2 54778  53.2163 292.4874 0000862  80.0052 280.1038 15.08835054 35942,6917.896,95.438,540.357,539.164,0.0
54778.0,STARLINK-5450,PAYLOAD,2023-08-12 17:02:33,15.08847713,7.72e-05,53.2159,288.9201,79.9921,280.1159,-4.9137e-05,-1.07e-05,0.0,0 STARLINK-5450,1 54778U 22175W   23224.71011329 -.00001070  00000-0 -49137-4 0  9993,2 54778  53.2159 288.9201 0000772  79.9921 280.1159 15.08847713 36066,6917.857,95.437,540.256,539.188,0.0
54778.0,STARLINK-5450,PAYLOAD,2023-08-13 15:17:58,15.08839644,8.41e-05,53.216,284.7577,112.0474,248.0607,-3.9838e-05,-9.22e-06,0.0,0 STARLINK-5450,1 54778U 22175W   23225.63747797 -.00000922  00000-0 -39838-4 0  9992,2 54778  53.2160 284.7577 0000841 112.0474 248.0607 15.08839644 36208,6917.881,95.438,540.328,539.165,0.0
54778.0,STARLINK-5450,PAYLOAD,2023-08-14 15:08:44,15.08845272,9.78e-05,53.2158,280.2961,74.5392,285.5708,3.781e-05,3.14e-06,0.0,0 STARLINK-5450,1 54778U 22175W   23226.63107266  .00000314  00000-0  37810-4 0  9995,2 54778  53.2158 280.2961 0000978  74.5392 285.5708 15.08845272 36353,6917.864,95.437,540.406,539.053,0.0
54778.0,STARLINK-5450,PAYLOAD,2023-08-15 10:13:22,15.0883591,0.0001117,53.2165,276.7244,99.5565,260.5554,-1.4639e-05,-5.21e-06,0.0,0 STARLINK-5450,1 54778U 22175W   23227.42596021 -.00000521  00000-0 -14639-4 0  9990,2 54778  53.2165 276.7244 0001117  99.5565 260.5554 15.08835910 36473,6917.893,95.438,540.531,538.985,0.0
54778.0,STARLINK-5450,PAYLOAD,2023-08-16 11:39:32,15.08840832,0.0001117,53.2164,271.9687,91.9674,268.1446,-8.7709e-06,-4.27e-06,0.0,0 STARLINK-5450,1 54778U 22175W   23228.48579796 -.00000427  00000-0 -87709-5 0  9991,2 54778  53.2164 271.9687 0001117  91.9674 268.1446 15.08840832 36638,6917.878,95.438,540.516,538.97,0.0
54778.0,STARLINK-5450,PAYLOAD,2023-08-17 13:05:43,15.0884059,0.0001152,53.2168,267.2115,79.6687,280.4435,3.4626e-05,2.63e-06,0.0,0 STARLINK-5450,1 54778U 22175W   23229.54563784  .00000263  00000-0  34626-4 0  9994,2 54778  53.2168 267.2115 0001152  79.6687 280.4435 15.08840590 36795,6917.879,95.438,540.541,538.947,0.0
54778.0,STARLINK-5450,PAYLOAD,2023-08-17 19:27:17,15.08823592,0.0001123,53.2169,266.0219,85.4647,274.6473,-0.00011698,-2.148e-05,0.0,0 STARLINK-5450,1 54778U 22175W   23229.81061462 -.00002148  00000-0 -11698-3 0  9999,2 54778  53.2169 266.0219 0001123  85.4647 274.6473 15.08823592 36832,6917.931,95.439,540.572,539.019,0.0
54778.0,STARLINK-5450,PAYLOAD,2023-08-18 09:45:46,15.08813023,0.0001239,53.2167,263.3457,80.7701,279.3431,-0.00019043,-3.315e-05,0.0,0 STARLINK-5450,1 54778U 22175W   23230.40679262 -.00003315  00000-0 -19043-3 0  9998,2 54778  53.2167 263.3457 0001239  80.7701 279.3431 15.08813023 36925,6917.963,95.439,540.685,538.971,0.0
54778.0,STARLINK-5450,PAYLOAD,2023-08-18 19:18:04,15.0883636,0.0001035,53.2167,261.561,91.3831,268.728,3.0121e-05,1.92e-06,0.0,0 STARLINK-5450,1 54778U 22175W   23230.80421419  .00000192  00000-0  30121-4 0  9990,2 54778  53.2167 261.5610 0001035  91.3831 268.7280 15.08836360 36981,6917.892,95.438,540.473,539.041,0.0
54778.0,STARLINK-5450,PAYLOAD,2023-08-19 09:36:31,15.08845455,9.8e-05,53.2159,258.8852,94.1909,265.9195,6.0511e-05,6.76e-06,0.0,0 STARLINK-5450,1 54778U 22175W   23231.40036846  .00000676  00000-0  60511-4 0  9996,2 54778  53.2159 258.8852 0000980  94.1909 265.9195 15.08845455 37074,6917.864,95.437,540.407,539.051,0.0
54778.0,STARLINK-5450,PAYLOAD,2023-08-20 01:30:23,15.08835262,0.0001081,53.216,255.9115,92.7476,267.364,0.00015842,2.234e-05,0.0,0 STARLINK-5450,1 54778U 22175W   23232.06277134  .00002234  00000-0  15842-3 0  9994,2 54778  53.2160 255.9115 0001081  92.7476 267.3640 15.08835262 37179,6917.895,95.438,540.508,539.012,0.0
54778.0,STARLINK-5450,PAYLOAD,2023-08-21 07:42:42,15.08847487,9.99e-05,53.2155,250.2615,93.8828,266.2278,-2.752e-05,-7.26e-06,0.0,0 STARLINK-5450,1 54778U 22175W   23233.32132831 -.00000726  00000-0 -27520-4 0  9991,2 54778  53.2155 250.2615 0000999  93.8828 266.2278 15.08847487 37364,6917.858,95.437,540.414,539.031,0.0
54778.0,STARLINK-5450,PAYLOAD,2023-08-22 12:19:38,15.08846894,0.0001013,53.2153,244.9089,89.9358,270.1751,-3.0445e-05,-7.72e-06,0.0,0 STARLINK-5450,1 54778U 22175W   23234.51364275 -.00000772  00000-0 -30445-4 0  9993,2 54778  53.2153 244.9089 0001013  89.9358 270.1751 15.08846894 37540,6917.859,95.437,540.425,539.024,0.0
54778.0,STARLINK-5450,PAYLOAD,2023-08-23 01:02:44,15.08836477,0.0001067,53.2158,242.5286,95.3213,264.7901,-6.2344e-05,-1.28e-05,0.0,0 STARLINK-5450,1 54778U 22175W   23235.04356949 -.00001280  00000-0 -62344-4 0  9999,2 54778  53.2158 242.5286 0001067  95.3213 264.7901 15.08836477 37629,6917.891,95.438,540.494,539.018,0.0
54778.0,STARLINK-5450,PAYLOAD,2023-08-24 08:50:26,15.08838321,9.94e-05,53.2156,236.5829,83.1472,276.9633,-2.9e-06,-3.34e-06,0.0,0 STARLINK-5450,1 54778U 22175W   23236.36836788 -.00000334  00000-0 -29000-5 0  9991,2 54778  53.2156 236.5829 0000994  83.1472 276.9633 15.08838321 39981,6917.886,95.438,540.438,539.063,0.0
54778.0,STARLINK-5450,PAYLOAD,2023-08-25 07:05:51,15.0883495,0.0001048,53.2155,232.4196,89.2858,270.8254,1.4494e-06,-2.65e-06,0.0,0 STARLINK-5450,1 54778U 22175W   23237.29573211 -.00000265  00000-0  14494-5 0  9996,2 54778  53.2155 232.4196 0001048  89.2858 270.8254 15.08834950 37960,6917.896,95.438,540.486,539.036,0.0
54778.0,STARLINK-5450,PAYLOAD,2023-08-25 10:16:37,15.08837629,9.94e-05,53.2155,231.8249,83.8812,276.2293,2.955e-05,1.83e-06,0.0,0 STARLINK-5450,1 54778U 22175W   23237.42820974  .00000183  00000-0  29550-4 0  9998,2 54778  53.2155 231.8249 0000994  83.8812 276.2293 15.08837629 40144,6917.888,95.438,540.44,539.065,0.0
54778.0,STARLINK-5450,PAYLOAD,2023-08-26 08:32:01,15.08837165,0.0001111,53.2158,227.6614,89.7253,270.3867,3.6261e-05,2.89e-06,0.0,0 STARLINK-5450,1 54778U 22175W   23238.35557170  .00000289  00000-0  36261-4 0  9990,2 54778  53.2158 227.6614 0001111  89.7253 270.3867 15.08837165 38124,6917.889,95.438,540.523,538.985,0.0
54778.0,STARLINK-5450,PAYLOAD,2023-08-27 08:22:48,15.08843247,0.0001126,53.2155,223.2016,83.8301,276.2819,5.2669e-05,5.51e-06,0.0,0 STARLINK-5450,1 54778U 22175W   23239.34916751  .00000551  00000-0  52669-4 0  9996,2 54778  53.2155 223.2016 0001126  83.8301 276.2819 15.08843247 40431,6917.87,95.437,540.514,538.957,0.0
54778.0,STARLINK-5450,PAYLOAD,2023-08-28 16:10:31,15.08839493,0.000114,53.2158,217.2541,87.9984,272.1139,-2.4002e-05,-6.7e-06,0.0,0 STARLINK-5450,1 54778U 22175W   23240.67397211 -.00000670  00000-0 -24002-4 0  9992,2 54778  53.2158 217.2541 0001140  87.9984 272.1139 15.08839493 38477,6917.882,95.438,540.536,538.958,0.0
54778.0,STARLINK-5450,PAYLOAD,2023-08-29 08:04:22,15.08845833,0.0001292,53.2161,214.2797,102.9924,257.1212,2.4038e-06,-2.5e-06,0.0,0 STARLINK-5450,1 54778U 22175W   23241.33636676 -.00000250  00000-0  24038-5 0  9990,2 54778  53.2161 214.2797 0001292 102.9924 257.1212 15.08845833 38572,6917.863,95.437,540.621,538.834,0.0
54778.0,STARLINK-5450,PAYLOAD,2023-08-30 01:33:37,15.08827995,0.0001343,53.2149,211.0074,98.7168,261.3976,-3.0836e-05,-7.78e-06,0.0,0 STARLINK-5450,1 54778U 22175W   23242.06502046 -.00000778  00000-0 -30836-4 0  9992,2 54778  53.2149 211.0074 0001343  98.7168 261.3976 15.08827995 38685,6917.917,95.438,540.711,538.853,0.0
